{
  "type": "FeatureCollection",
  "features": [
    {
      "type": "Feature",
      "properties": {
        "norad_id": 55268,
        "name": "GPS BIII-6  (PRN 28)",
        "group": "gnss",
        "lat": 53.42673095885289,
        "lon": -134.1638224746234,
        "alt_km": 20174.963685380048,
        "timestamp": "2025-12-18T13:51:49.924825+00:00",
        "meta_object_name": "GPS BIII-6  (PRN 28)",
        "meta_object_id": "2023-009A",
        "meta_epoch": "2025-12-17T11:51:56.668896",
        "meta_mean_motion": 2.00555417,
        "meta_eccentricity": 0.00037978,
        "meta_inclination": 55.1064,
        "meta_ra_of_asc_node": 155.6587,
        "meta_arg_of_pericenter": 358.2196,
        "meta_mean_anomaly": 17.9493,
        "meta_ephemeris_type": 0,
        "meta_classification_type": "U",
        "meta_norad_cat_id": 55268,
        "meta_element_set_no": 999,
        "meta_rev_at_epoch": 2160,
        "meta_bstar": 0,
        "meta_mean_motion_dot": 7.7e-07,
        "meta_mean_motion_ddot": 0,
        "tle_line1": "1 55268U 23009A   25351.49440589  .00000077  00000+0  00000+0 0  9991",
        "tle_line2": "2 55268  55.1064 155.6587 0003797 358.2196  17.9493  2.00555417 21607"
      },
      "geometry": {
        "type": "Point",
        "coordinates": [
          -134.1638224746234,
          53.42673095885289
        ]
      }
    },
    {
      "type": "Feature",
      "properties": {
        "norad_id": 56564,
        "name": "BEIDOU-3 G4 (C62)",
        "group": "gnss",
        "lat": 0.3897545621120053,
        "lon": 95.41691855268485,
        "alt_km": 35782.89111197933,
        "timestamp": "2025-12-18T13:51:49.924838+00:00",
        "meta_object_name": "BEIDOU-3 G4 (C62)",
        "meta_object_id": "2023-066A",
        "meta_epoch": "2025-12-18T05:29:48.091776",
        "meta_mean_motion": 1.00271695,
        "meta_eccentricity": 0.00027503,
        "meta_inclination": 0.8034,
        "meta_ra_of_asc_node": 302.4816,
        "meta_arg_of_pericenter": 226.9983,
        "meta_mean_anomaly": 160.1273,
        "meta_ephemeris_type": 0,
        "meta_classification_type": "U",
        "meta_norad_cat_id": 56564,
        "meta_element_set_no": 999,
        "meta_rev_at_epoch": 958,
        "meta_bstar": 0,
        "meta_mean_motion_dot": -8.5e-07,
        "meta_mean_motion_ddot": 0,
        "tle_line1": "1 56564U 23066A   25352.22902884 -.00000085  00000+0  00000+0 0  9997",
        "tle_line2": "2 56564   0.8034 302.4816 0002750 226.9983 160.1273  1.00271695  9583"
      },
      "geometry": {
        "type": "Point",
        "coordinates": [
          95.41691855268485,
          0.3897545621120053
        ]
      }
    },
    {
      "type": "Feature",
      "properties": {
        "norad_id": 56759,
        "name": "NVS-01 (IRNSS-1J)",
        "group": "gnss",
        "lat": 0.32000330427183865,
        "lon": 64.95964064358819,
        "alt_km": 35819.62388950816,
        "timestamp": "2025-12-18T13:51:49.924852+00:00",
        "meta_object_name": "NVS-01 (IRNSS-1J)",
        "meta_object_id": "2023-076A",
        "meta_epoch": "2025-12-18T05:21:03.928896",
        "meta_mean_motion": 1.00274953,
        "meta_eccentricity": 0.00087703,
        "meta_inclination": 2.6053,
        "meta_ra_of_asc_node": 251.403,
        "meta_arg_of_pericenter": 15.7559,
        "meta_mean_anomaly": 29.7252,
        "meta_ephemeris_type": 0,
        "meta_classification_type": "U",
        "meta_norad_cat_id": 56759,
        "meta_element_set_no": 999,
        "meta_rev_at_epoch": 930,
        "meta_bstar": 0,
        "meta_mean_motion_dot": -3.07e-06,
        "meta_mean_motion_ddot": 0,
        "tle_line1": "1 56759U 23076A   25352.22296214 -.00000307  00000+0  00000+0 0  9994",
        "tle_line2": "2 56759   2.6053 251.4030 0008770  15.7559  29.7252  1.00274953  9309"
      },
      "geometry": {
        "type": "Point",
        "coordinates": [
          64.95964064358819,
          0.32000330427183865
        ]
      }
    },
    {
      "type": "Feature",
      "properties": {
        "norad_id": 57517,
        "name": "COSMOS 2569 (703K)",
        "group": "gnss",
        "lat": -8.242552999764035,
        "lon": 74.89210171009177,
        "alt_km": 19119.323988072007,
        "timestamp": "2025-12-18T13:51:49.924864+00:00",
        "meta_object_name": "COSMOS 2569 (703K)",
        "meta_object_id": "2023-114A",
        "meta_epoch": "2025-12-18T02:53:08.324736",
        "meta_mean_motion": 2.13104044,
        "meta_eccentricity": 0.00107319,
        "meta_inclination": 65.197,
        "meta_ra_of_asc_node": 78.7317,
        "meta_arg_of_pericenter": 286.9932,
        "meta_mean_anomaly": 72.9111,
        "meta_ephemeris_type": 0,
        "meta_classification_type": "U",
        "meta_norad_cat_id": 57517,
        "meta_element_set_no": 999,
        "meta_rev_at_epoch": 1840,
        "meta_bstar": 0,
        "meta_mean_motion_dot": -4.2e-07,
        "meta_mean_motion_ddot": 0,
        "tle_line1": "1 57517U 23114A   25352.12023524 -.00000042  00000+0  00000+0 0  9997",
        "tle_line2": "2 57517  65.1970  78.7317 0010731 286.9932  72.9111  2.13104044 18402"
      },
      "geometry": {
        "type": "Point",
        "coordinates": [
          74.89210171009177,
          -8.242552999764035
        ]
      }
    },
    {
      "type": "Feature",
      "properties": {
        "norad_id": 58654,
        "name": "BEIDOU-3 M28 (C50)",
        "group": "gnss",
        "lat": 19.40584748524414,
        "lon": -125.53288720557713,
        "alt_km": 21529.07032907717,
        "timestamp": "2025-12-18T13:51:49.924875+00:00",
        "meta_object_name": "BEIDOU-3 M28 (C50)",
        "meta_object_id": "2023-207A",
        "meta_epoch": "2025-12-18T08:16:11.726688",
        "meta_mean_motion": 1.86229841,
        "meta_eccentricity": 0.00026244,
        "meta_inclination": 55.5892,
        "meta_ra_of_asc_node": 68.4116,
        "meta_arg_of_pericenter": 272.1246,
        "meta_mean_anomaly": 87.875,
        "meta_ephemeris_type": 0,
        "meta_classification_type": "U",
        "meta_norad_cat_id": 58654,
        "meta_element_set_no": 999,
        "meta_rev_at_epoch": 1347,
        "meta_bstar": 0,
        "meta_mean_motion_dot": -6.6e-07,
        "meta_mean_motion_ddot": 0,
        "tle_line1": "1 58654U 23207A   25352.34458017 -.00000066  00000+0  00000+0 0  9992",
        "tle_line2": "2 58654  55.5892  68.4116 0002624 272.1246  87.8750  1.86229841 13479"
      },
      "geometry": {
        "type": "Point",
        "coordinates": [
          -125.53288720557713,
          19.40584748524414
        ]
      }
    },
    {
      "type": "Feature",
      "properties": {
        "norad_id": 58655,
        "name": "BEIDOU-3 M26 (C48)",
        "group": "gnss",
        "lat": -49.93853659524396,
        "lon": 13.938272213281572,
        "alt_km": 21524.287900279385,
        "timestamp": "2025-12-18T13:51:49.924887+00:00",
        "meta_object_name": "BEIDOU-3 M26 (C48)",
        "meta_object_id": "2023-207B",
        "meta_epoch": "2025-12-17T14:31:30.894816",
        "meta_mean_motion": 1.86231346,
        "meta_eccentricity": 0.0004016,
        "meta_inclination": 55.5906,
        "meta_ra_of_asc_node": 68.4229,
        "meta_arg_of_pericenter": 258.0544,
        "meta_mean_anomaly": 101.9267,
        "meta_ephemeris_type": 0,
        "meta_classification_type": "U",
        "meta_norad_cat_id": 58655,
        "meta_element_set_no": 999,
        "meta_rev_at_epoch": 1344,
        "meta_bstar": 0,
        "meta_mean_motion_dot": -7.2e-07,
        "meta_mean_motion_ddot": 0,
        "tle_line1": "1 58655U 23207B   25351.60521869 -.00000072  00000+0  00000+0 0  9994",
        "tle_line2": "2 58655  55.5906  68.4229 0004016 258.0544 101.9267  1.86231346 13443"
      },
      "geometry": {
        "type": "Point",
        "coordinates": [
          13.938272213281572,
          -49.93853659524396
        ]
      }
    },
    {
      "type": "Feature",
      "properties": {
        "norad_id": 59598,
        "name": "GSAT0225 (GALILEO 29)",
        "group": "gnss",
        "lat": -54.041581550729134,
        "lon": 0.8129464240783313,
        "alt_km": 23226.696104537805,
        "timestamp": "2025-12-18T13:51:49.924898+00:00",
        "meta_object_name": "GSAT0225 (GALILEO 29)",
        "meta_object_id": "2024-079A",
        "meta_epoch": "2025-12-16T09:22:38.225280",
        "meta_mean_motion": 1.70475011,
        "meta_eccentricity": 0.00021396,
        "meta_inclination": 55.0038,
        "meta_ra_of_asc_node": 106.1932,
        "meta_arg_of_pericenter": 182.0305,
        "meta_mean_anomaly": 176.7742,
        "meta_ephemeris_type": 0,
        "meta_classification_type": "U",
        "meta_norad_cat_id": 59598,
        "meta_element_set_no": 999,
        "meta_rev_at_epoch": 1019,
        "meta_bstar": 0,
        "meta_mean_motion_dot": -1e-07,
        "meta_mean_motion_ddot": 0,
        "tle_line1": "1 59598U 24079A   25350.39072020 -.00000010  00000+0  00000+0 0  9996",
        "tle_line2": "2 59598  55.0038 106.1932 0002139 182.0305 176.7742  1.70475011 10196"
      },
      "geometry": {
        "type": "Point",
        "coordinates": [
          0.8129464240783313,
          -54.041581550729134
        ]
      }
    }
  ]
}